ONEWEB-0545             
1 54647U 22166F   25112.54538578  .00000167  00000+0  37351-3 0  9994
2 54647  87.9271 327.8780 0002258  78.2614 281.8773 13.21825418115932
ONEWEB-0580             
1 54648U 22166G   25112.51857457  .00000102  00000+0  21566-3 0  9992
2 54648  87.9280 327.8742 0002205  85.9912 274.1474 13.21825076115976
ONEWEB-0582             
1 54649U 22166H   25113.09103805  .00000119  00000+0  25674-3 0  9990
2 54649  87.9262 327.7762 0002341  85.1249 275.0152 13.21827632116495
ONEWEB-0583             
1 54650U 22166J   25113.63194072  .00000007  00000+0 -14375-4 0  9992
2 54650  87.9268 327.6769 0002232  90.9827 269.1563 13.21825156116583
ONEWEB-0584             
1 54651U 22166K   25112.51700031  .00000066  00000+0  12814-3 0  9996
2 54651  87.9280 327.8790 0002242  88.7476 271.3915 13.21826410115949
ONEWEB-0585             
1 54652U 22166L   25112.54223264  .00000050  00000+0  88713-4 0  9993
2 54652  87.9267 327.8683 0001688  88.0909 272.0418 13.21824092115954
ONEWEB-0586             
1 54653U 22166M   25112.55484038  .00000116  00000+0  25001-3 0  9996
2 54653  87.9272 327.8842 0002009  84.3080 275.8282 13.21825671115959
ONEWEB-0587             
1 54654U 22166N   25113.09417768  .00000067  00000+0  13130-3 0  9998
2 54654  87.9270 327.7262 0001598  87.1268 273.0048 13.21823842116649
